{
  "type": "FeatureCollection",
  "features": [
    {
      "type": "Feature",
      "properties": {
        "norad_id": 50032,
        "name": "COSMOS 1408 DEB",
        "group": "cosmos-1408-debris",
        "lat": -57.98051135850399,
        "lon": 36.46688730814769,
        "alt_km": 443.1366574915173,
        "timestamp": "2025-12-22T11:33:20.709900+00:00",
        "meta_object_name": "COSMOS 1408 DEB",
        "meta_object_id": "1982-092RU",
        "meta_epoch": "2025-12-22T04:02:31.932960",
        "meta_mean_motion": 15.45783536,
        "meta_eccentricity": 0.0016203,
        "meta_inclination": 82.5631,
        "meta_ra_of_asc_node": 48.8449,
        "meta_arg_of_pericenter": 173.5124,
        "meta_mean_anomaly": 186.6338,
        "meta_ephemeris_type": 0,
        "meta_classification_type": "U",
        "meta_norad_cat_id": 50032,
        "meta_element_set_no": 999,
        "meta_rev_at_epoch": 22749,
        "meta_bstar": 0.00010471,
        "meta_mean_motion_dot": 5.134e-05,
        "meta_mean_motion_ddot": 0,
        "tle_line1": "1 50032U 82092RU  25356.16842515  .00005134  00000+0  10471-3 0  9992",
        "tle_line2": "2 50032  82.5631  48.8449 0016203 173.5124 186.6338 15.45783536227495"
      },
      "geometry": {
        "type": "Point",
        "coordinates": [
          36.46688730814769,
          -57.98051135850399
        ]
      }
    },
    {
      "type": "Feature",
      "properties": {
        "norad_id": 50058,
        "name": "COSMOS 1408 DEB",
        "group": "cosmos-1408-debris",
        "lat": 74.12634330588844,
        "lon": 86.29120770454125,
        "alt_km": 356.4788935713368,
        "timestamp": "2025-12-22T11:33:20.709921+00:00",
        "meta_object_name": "COSMOS 1408 DEB",
        "meta_object_id": "1982-092SW",
        "meta_epoch": "2025-12-22T03:33:31.793760",
        "meta_mean_motion": 15.6464179,
        "meta_eccentricity": 0.0016044,
        "meta_inclination": 82.6122,
        "meta_ra_of_asc_node": 59.4914,
        "meta_arg_of_pericenter": 67.1672,
        "meta_mean_anomaly": 293.128,
        "meta_ephemeris_type": 0,
        "meta_classification_type": "U",
        "meta_norad_cat_id": 50058,
        "meta_element_set_no": 999,
        "meta_rev_at_epoch": 22951,
        "meta_bstar": 0.00034397,
        "meta_mean_motion_dot": 0.0003358,
        "meta_mean_motion_ddot": 0,
        "tle_line1": "1 50058U 82092SW  25356.14828465  .00033580  00000+0  34397-3 0  9995",
        "tle_line2": "2 50058  82.6122  59.4914 0016044  67.1672 293.1280 15.64641790229514"
      },
      "geometry": {
        "type": "Point",
        "coordinates": [
          86.29120770454125,
          74.12634330588844
        ]
      }
    },
    {
      "type": "Feature",
      "properties": {
        "norad_id": 50404,
        "name": "COSMOS 1408 DEB",
        "group": "cosmos-1408-debris",
        "lat": -61.35941684420732,
        "lon": 39.578970398830954,
        "alt_km": 499.19195282613055,
        "timestamp": "2025-12-22T11:33:20.709934+00:00",
        "meta_object_name": "COSMOS 1408 DEB",
        "meta_object_id": "1982-092ADS",
        "meta_epoch": "2025-12-21T15:28:45.909120",
        "meta_mean_motion": 15.15078556,
        "meta_eccentricity": 0.0168442,
        "meta_inclination": 82.2035,
        "meta_ra_of_asc_node": 205.9075,
        "meta_arg_of_pericenter": 168.3631,
        "meta_mean_anomaly": 192.1574,
        "meta_ephemeris_type": 0,
        "meta_classification_type": "U",
        "meta_norad_cat_id": 50404,
        "meta_element_set_no": 999,
        "meta_rev_at_epoch": 21328,
        "meta_bstar": 0.0028703,
        "meta_mean_motion_dot": 0.00077658,
        "meta_mean_motion_ddot": 0,
        "tle_line1": "1 50404U 82092ADS 25355.64497580  .00077658  00000+0  28703-2 0  9991",
        "tle_line2": "2 50404  82.2035 205.9075 0168442 168.3631 192.1574 15.15078556213284"
      },
      "geometry": {
        "type": "Point",
        "coordinates": [
          39.578970398830954,
          -61.35941684420732
        ]
      }
    },
    {
      "type": "Feature",
      "properties": {
        "norad_id": 50621,
        "name": "COSMOS 1408 DEB",
        "group": "cosmos-1408-debris",
        "lat": -10.616369939569154,
        "lon": -114.56185995671449,
        "alt_km": 394.6146054320943,
        "timestamp": "2025-12-22T11:33:20.709946+00:00",
        "meta_object_name": "COSMOS 1408 DEB",
        "meta_object_id": "1982-092ALR",
        "meta_epoch": "2025-12-22T04:34:23.412864",
        "meta_mean_motion": 15.57122494,
        "meta_eccentricity": 0.0029074,
        "meta_inclination": 82.5697,
        "meta_ra_of_asc_node": 64.3395,
        "meta_arg_of_pericenter": 118.4206,
        "meta_mean_anomaly": 241.9985,
        "meta_ephemeris_type": 0,
        "meta_classification_type": "U",
        "meta_norad_cat_id": 50621,
        "meta_element_set_no": 999,
        "meta_rev_at_epoch": 22397,
        "meta_bstar": 0.00039202,
        "meta_mean_motion_dot": 0.00029066,
        "meta_mean_motion_ddot": 0,
        "tle_line1": "1 50621U 82092ALR 25356.19054876  .00029066  00000+0  39202-3 0  9997",
        "tle_line2": "2 50621  82.5697  64.3395 0029074 118.4206 241.9985 15.57122494223978"
      },
      "geometry": {
        "type": "Point",
        "coordinates": [
          -114.56185995671449,
          -10.616369939569154
        ]
      }
    }
  ]
}